[
  {
    "OBJECT_NAME": "STARLINK-30850",
    "OBJECT_ID": "23171T",
    "EPOCH": "2025-11-11T02:59:48.424128",
    "MEAN_MOTION": 15.02530922,
    "ECCENTRICITY": 7.78e-05,
    "INCLINATION": 43.0039,
    "RA_OF_ASC_NODE": 209.9554,
    "ARG_OF_PERICENTER": 310.0441,
    "MEAN_ANOMALY": 50.0333,
    "EPHEMERIS_TYPE": 0,
    "CLASSIFICATION_TYPE": "U",
    "NORAD_CAT_ID": 58247,
    "ELEMENT_SET_NO": 999,
    "REV_AT_EPOCH": 11189,
    "BSTAR": 0.0,
    "MEAN_MOTION_DOT": -1.01e-05,
    "MEAN_MOTION_DDOT": 0.0,
    "TLE_LINE1": "1 58247U 23171T   25315.12486602 -.00001010  00000+0 -59752-4 0  9990",
    "TLE_LINE2": "2 58247  43.0039 209.9554 0000778 310.0441  50.0333 15.02530922111899",
    "COMMENT": "Grouped by shell and plane from TLE"
  }
]